[{"OBJECT_NAME":"STARLINK-2633","OBJECT_ID":"2021-040H","EPOCH":"2026-03-09T17:56:48.276672","MEAN_MOTION":15.29371056,"ECCENTRICITY":0.00012426,"INCLINATION":53.1552,"RA_OF_ASC_NODE":164.8493,"ARG_OF_PERICENTER":92.3494,"MEAN_ANOMALY":267.7648,"EPHEMERIS_TYPE":0,"CLASSIFICATION_TYPE":"U","NORAD_CAT_ID":48435,"ELEMENT_SET_NO":999,"REV_AT_EPOCH":26686,"BSTAR":0.00052180168,"MEAN_MOTION_DOT":0.00014738,"MEAN_MOTION_DDOT":0},{"OBJECT_NAME":"TEVEL2-6","OBJECT_ID":"2025-052F","EPOCH":"2026-03-09T15:35:24.554400","MEAN_MOTION":15.30760889,"ECCENTRICITY":0.0004769,"INCLINATION":97.4016,"RA_OF_ASC_NODE":325.0381,"ARG_OF_PERICENTER":95.6604,"MEAN_ANOMALY":264.5181,"EPHEMERIS_TYPE":0,"CLASSIFICATION_TYPE":"U","NORAD_CAT_ID":63215,"ELEMENT_SET_NO":999,"REV_AT_EPOCH":5486,"BSTAR":0.00070909,"MEAN_MOTION_DOT":0.00021046,"MEAN_MOTION_DDOT":0}]
